{
  "type": "FeatureCollection",
  "features": [
    {
      "type": "Feature",
      "properties": {
        "norad_id": 66555,
        "name": "ELECTRON KICK STAGE R/B",
        "group": "last-30-days",
        "lat": NaN,
        "lon": NaN,
        "alt_km": NaN,
        "timestamp": "2025-12-01T03:12:43.524747+00:00",
        "meta": {
          "OBJECT_NAME": "ELECTRON KICK STAGE R/B",
          "OBJECT_ID": "2025-267B",
          "EPOCH": "2025-11-30T11:07:36.501024",
          "MEAN_MOTION": 15.31955183,
          "ECCENTRICITY": 0.00076028,
          "INCLINATION": 42.0172,
          "RA_OF_ASC_NODE": 127.7902,
          "ARG_OF_PERICENTER": 326.1836,
          "MEAN_ANOMALY": 33.8516,
          "EPHEMERIS_TYPE": 0,
          "CLASSIFICATION_TYPE": "U",
          "NORAD_CAT_ID": 66555,
          "ELEMENT_SET_NO": 999,
          "REV_AT_EPOCH": 152,
          "BSTAR": 0.00082617007,
          "MEAN_MOTION_DOT": 0.00025902,
          "MEAN_MOTION_DDOT": 0
        }
      },
      "geometry": {
        "type": "Point",
        "coordinates": [
          NaN,
          NaN
        ]
      }
    },
    {
      "type": "Feature",
      "properties": {
        "norad_id": 66587,
        "name": "CZ-3B R/B",
        "group": "last-30-days",
        "lat": NaN,
        "lon": NaN,
        "alt_km": NaN,
        "timestamp": "2025-12-01T03:12:43.524756+00:00",
        "meta": {
          "OBJECT_NAME": "CZ-3B R/B",
          "OBJECT_ID": "2025-269B",
          "EPOCH": "2025-11-23T12:20:01.405824",
          "MEAN_MOTION": 2.01516013,
          "ECCENTRICITY": 0.75253415,
          "INCLINATION": 51.3768,
          "RA_OF_ASC_NODE": 174.0599,
          "ARG_OF_PERICENTER": 225.2938,
          "MEAN_ANOMALY": 41.2116,
          "EPHEMERIS_TYPE": 0,
          "CLASSIFICATION_TYPE": "U",
          "NORAD_CAT_ID": 66587,
          "ELEMENT_SET_NO": 999,
          "REV_AT_EPOCH": 6,
          "BSTAR": 0.00049596604,
          "MEAN_MOTION_DOT": 0.0001032,
          "MEAN_MOTION_DDOT": -9.13844e-07
        }
      },
      "geometry": {
        "type": "Point",
        "coordinates": [
          NaN,
          NaN
        ]
      }
    },
    {
      "type": "Feature",
      "properties": {
        "norad_id": 66663,
        "name": "KSLV-II R/B",
        "group": "last-30-days",
        "lat": NaN,
        "lon": NaN,
        "alt_km": NaN,
        "timestamp": "2025-12-01T03:12:43.525972+00:00",
        "meta": {
          "OBJECT_NAME": "KSLV-II R/B",
          "OBJECT_ID": "2025-274P",
          "EPOCH": "2025-11-30T19:05:37.538304",
          "MEAN_MOTION": 14.97216641,
          "ECCENTRICITY": 0.0044329,
          "INCLINATION": 97.7404,
          "RA_OF_ASC_NODE": 262.2533,
          "ARG_OF_PERICENTER": 358.2629,
          "MEAN_ANOMALY": 1.8431,
          "EPHEMERIS_TYPE": 0,
          "CLASSIFICATION_TYPE": "U",
          "NORAD_CAT_ID": 66663,
          "ELEMENT_SET_NO": 999,
          "REV_AT_EPOCH": 62,
          "BSTAR": -0.00029874,
          "MEAN_MOTION_DOT": -3.586e-05,
          "MEAN_MOTION_DDOT": 0
        }
      },
      "geometry": {
        "type": "Point",
        "coordinates": [
          NaN,
          NaN
        ]
      }
    }
  ]
}